{
  "links" : {
    "next" : "https://api.nasa.gov/neo/rest/v1/feed?start_date=2014-05-23&end_date=2014-05-23&detailed=true&api_key=t0TVs3DtDT2H8Oy2Zy8m2eVrNsAVKAexjcZXUckd",
    "prev" : "https://api.nasa.gov/neo/rest/v1/feed?start_date=2014-05-21&end_date=2014-05-21&detailed=true&api_key=t0TVs3DtDT2H8Oy2Zy8m2eVrNsAVKAexjcZXUckd",
    "self" : "https://api.nasa.gov/neo/rest/v1/feed?start_date=2014-05-22&end_date=2014-05-22&detailed=true&api_key=t0TVs3DtDT2H8Oy2Zy8m2eVrNsAVKAexjcZXUckd"
  },
  "element_count" : 6,
  "near_earth_objects" : {
    "2014-05-22" : [ {
      "links" : {
        "self" : "https://api.nasa.gov/neo/rest/v1/neo/3698570?api_key=t0TVs3DtDT2H8Oy2Zy8m2eVrNsAVKAexjcZXUckd"
      },
      "neo_reference_id" : "3698570",
      "name" : "(2014 JV79)",
      "nasa_jpl_url" : "http://ssd.jpl.nasa.gov/sbdb.cgi?sstr=3698570",
      "absolute_magnitude_h" : 25.4,
      "estimated_diameter" : {
        "kilometers" : {
          "estimated_diameter_min" : 0.022108281,
          "estimated_diameter_max" : 0.0494356193
        },
        "meters" : {
          "estimated_diameter_min" : 22.1082810359,
          "estimated_diameter_max" : 49.435619262
        },
        "miles" : {
          "estimated_diameter_min" : 0.0137374447,
          "estimated_diameter_max" : 0.0307178602
        },
        "feet" : {
          "estimated_diameter_min" : 72.5337327539,
          "estimated_diameter_max" : 162.1903570994
        }
      },
      "is_potentially_hazardous_asteroid" : false,
      "close_approach_data" : [ {
        "close_approach_date" : "2014-05-22",
        "epoch_date_close_approach" : 1400742000000,
        "relative_velocity" : {
          "kilometers_per_second" : "8.93014181",
          "kilometers_per_hour" : "32148.5105158252",
          "miles_per_hour" : "19975.8342146804"
        },
        "miss_distance" : {
          "astronomical" : "0.1012430332",
          "lunar" : "39.3835411072",
          "kilometers" : "15145742",
          "miles" : "9411128"
        },
        "orbiting_body" : "Earth"
      } ],
      "orbital_data" : {
        "orbit_id" : "4",
        "orbit_determination_date" : "2017-04-06 08:40:28",
        "orbit_uncertainty" : "9",
        "minimum_orbit_intersection" : ".0138297",
        "jupiter_tisserand_invariant" : "5.684",
        "epoch_osculation" : "2456783.5",
        "eccentricity" : ".1357629841509431",
        "semi_major_axis" : "1.079972456999897",
        "inclination" : "16.35524239184844",
        "ascending_node_longitude" : "233.0743617258227",
        "orbital_period" : "409.9373093939683",
        "perihelion_distance" : ".9333521734367647",
        "perihelion_argument" : "113.9350980723437",
        "aphelion_distance" : "1.226592740563029",
        "perihelion_time" : "2456904.332568334919",
        "mean_anomaly" : "253.8868856194652",
        "mean_motion" : ".8781830581173662",
        "equinox" : "J2000"
      }
    }, {
      "links" : {
        "self" : "https://api.nasa.gov/neo/rest/v1/neo/3693517?api_key=t0TVs3DtDT2H8Oy2Zy8m2eVrNsAVKAexjcZXUckd"
      },
      "neo_reference_id" : "3693517",
      "name" : "(2014 TH64)",
      "nasa_jpl_url" : "http://ssd.jpl.nasa.gov/sbdb.cgi?sstr=3693517",
      "absolute_magnitude_h" : 23.3,
      "estimated_diameter" : {
        "kilometers" : {
          "estimated_diameter_min" : 0.058150704,
          "estimated_diameter_max" : 0.130028927
        },
        "meters" : {
          "estimated_diameter_min" : 58.1507039646,
          "estimated_diameter_max" : 130.0289270043
        },
        "miles" : {
          "estimated_diameter_min" : 0.0361331611,
          "estimated_diameter_max" : 0.0807962044
        },
        "feet" : {
          "estimated_diameter_min" : 190.7831555951,
          "estimated_diameter_max" : 426.6041048727
        }
      },
      "is_potentially_hazardous_asteroid" : false,
      "close_approach_data" : [ {
        "close_approach_date" : "2014-05-22",
        "epoch_date_close_approach" : 1400742000000,
        "relative_velocity" : {
          "kilometers_per_second" : "4.9722486352",
          "kilometers_per_hour" : "17900.0950866034",
          "miles_per_hour" : "11122.4229720065"
        },
        "miss_distance" : {
          "astronomical" : "0.2200558328",
          "lunar" : "85.6017227173",
          "kilometers" : "32919884",
          "miles" : "20455468"
        },
        "orbiting_body" : "Earth"
      } ],
      "orbital_data" : {
        "orbit_id" : "5",
        "orbit_determination_date" : "2017-04-06 08:38:07",
        "orbit_uncertainty" : "8",
        "minimum_orbit_intersection" : ".106351",
        "jupiter_tisserand_invariant" : "4.785",
        "epoch_osculation" : "2456948.5",
        "eccentricity" : ".2674263023126713",
        "semi_major_axis" : "1.363774265123667",
        "inclination" : "10.60488353868366",
        "ascending_node_longitude" : "193.3626188042699",
        "orbital_period" : "581.7175458176803",
        "perihelion_distance" : ".9990651562124641",
        "perihelion_argument" : "106.5517691534017",
        "aphelion_distance" : "1.72848337403487",
        "perihelion_time" : "2456864.063891190250",
        "mean_anomaly" : "52.25388058182607",
        "mean_motion" : ".6188570425428251",
        "equinox" : "J2000"
      }
    }, {
      "links" : {
        "self" : "https://api.nasa.gov/neo/rest/v1/neo/3694046?api_key=t0TVs3DtDT2H8Oy2Zy8m2eVrNsAVKAexjcZXUckd"
      },
      "neo_reference_id" : "3694046",
      "name" : "(2014 US33)",
      "nasa_jpl_url" : "http://ssd.jpl.nasa.gov/sbdb.cgi?sstr=3694046",
      "absolute_magnitude_h" : 25.1,
      "estimated_diameter" : {
        "kilometers" : {
          "estimated_diameter_min" : 0.0253837029,
          "estimated_diameter_max" : 0.0567596853
        },
        "meters" : {
          "estimated_diameter_min" : 25.3837029364,
          "estimated_diameter_max" : 56.7596852866
        },
        "miles" : {
          "estimated_diameter_min" : 0.0157726969,
          "estimated_diameter_max" : 0.0352688224
        },
        "feet" : {
          "estimated_diameter_min" : 83.279867942,
          "estimated_diameter_max" : 186.2194458756
        }
      },
      "is_potentially_hazardous_asteroid" : false,
      "close_approach_data" : [ {
        "close_approach_date" : "2014-05-22",
        "epoch_date_close_approach" : 1400742000000,
        "relative_velocity" : {
          "kilometers_per_second" : "9.3180434408",
          "kilometers_per_hour" : "33544.9563869361",
          "miles_per_hour" : "20843.5313727604"
        },
        "miss_distance" : {
          "astronomical" : "0.3934191737",
          "lunar" : "153.0400543213",
          "kilometers" : "58854672",
          "miles" : "36570596"
        },
        "orbiting_body" : "Earth"
      } ],
      "orbital_data" : {
        "orbit_id" : "4",
        "orbit_determination_date" : "2017-04-06 08:38:02",
        "orbit_uncertainty" : "9",
        "minimum_orbit_intersection" : ".102196",
        "jupiter_tisserand_invariant" : "4.363",
        "epoch_osculation" : "2456953.5",
        "eccentricity" : ".3767127339014431",
        "semi_major_axis" : "1.526535259905573",
        "inclination" : "17.92539270223287",
        "ascending_node_longitude" : "209.2834895088341",
        "orbital_period" : "688.9039691949354",
        "perihelion_distance" : ".9514699887495944",
        "perihelion_argument" : "113.1907465214743",
        "aphelion_distance" : "2.101600531061551",
        "perihelion_time" : "2456892.820026260169",
        "mean_anomaly" : "31.70948568037334",
        "mean_motion" : ".5225692057206492",
        "equinox" : "J2000"
      }
    } ]
  }
}